1 26871U 01031A   12031.15384728 -.00000282  00000-0  10000-3 0  4323
2 26871 001.9493 074.5217 0001503 277.3088 132.8949 01.00286233 38611